[
    {
        "Altitude(m)": 624790.772228012,
        "Argument of Periapsis(deg)": 0.0,
        "Eccentricity": 0.0,
        "Inclination(deg)": 60.0,
        "Latitude(deg)": -59.14704636603067,
        "Longitude(deg)": 121.03454610896519,
        "Mean Anomaly(deg)": -81.81819999999996,
        "RAAN(deg)": 295.00000000000006,
        "Satellite Name": "Test1 1315",
        "Satellite Number": 1315,
        "Semi-Major Axis(m)": 6980739.136638005,
        "Time(s)": 0
    },
    {
        "Altitude(m)": 624737.4274686896,
        "Argument of Periapsis(deg)": 0.00010418945913296404,
        "Eccentricity": 0.0,
        "Inclination(deg)": 60.0,
        "Latitude(deg)": -58.99450222202676,
        "Longitude(deg)": 122.15404627291724,
        "Mean Anomaly(deg)": -81.1980938545381,
        "RAAN(deg)": 294.99957995086027,
        "Satellite Name": "Test1 1315",
        "Satellite Number": 1315,
        "Semi-Major Axis(m)": 6980739.136638005,
        "Time(s)": 10
    }
]